ONEWEB-0395             
1 50475U 21132G   24229.35766886 -.00000495  00000+0 -14338-2 0  9998
2 50475  87.8997 154.4533 0002286  81.4579 278.6808 13.11413820127922
ONEWEB-0396             
1 50476U 21132H   24229.17790242  .00005404  00000+0  13672-1 0  9994
2 50476  87.9109 108.8393 0002216  72.0493 288.0880 13.18662007133337
ONEWEB-0397             
1 50477U 21132J   24229.19213357  .00000044  00000+0  79371-4 0  9990
2 50477  87.9113 108.8380 0001818  70.1015 290.0313 13.18687237133319
ONEWEB-0398             
1 50478U 21132K   24229.32547665  .00000606  00000+0  16727-2 0  9996
2 50478  87.8993 154.4371 0002070  88.6159 271.5207 13.11416517127814
ONEWEB-0399             
1 50479U 21132L   24229.31191682  .00000310  00000+0  83933-3 0  9996
2 50479  87.8996 154.4577 0002174  67.1332 293.0025 13.11418826127807
ONEWEB-0400             
1 50480U 21132M   24229.17157247  .00000073  00000+0  15190-3 0  9997
2 50480  87.9108 108.8430 0001795  84.4467 275.6870 13.18688475133307
ONEWEB-0401             
1 50481U 21132N   24229.21425659 -.00000246  00000+0 -65611-3 0  9995
2 50481  87.9106 108.8310 0001778  68.2228 291.9093 13.18685559133318
ONEWEB-0402             
1 50482U 21132P   24229.17948872  .00000058  00000+0  11421-3 0  9997
2 50482  87.9108 108.8353 0001652  51.2691 308.8589 13.18686033133333
